STARLINK-35935          
1 66527U 25265M   25347.48450398  .00137109  00000+0  23034-2 0  9992
2 66527  43.0007  49.6123 0004679 286.0879  73.9466 15.50556406  3873
STARLINK-35928          
1 66528U 25265N   25348.19272902  .00075647  00000+0  12830-2 0  9995
2 66528  42.9993  45.4676 0001374 257.7908 102.2798 15.50575093  3989
STARLINK-35933          
1 66529U 25265P   25348.25003472  .00031947  00000+0  76972-3 0  9990
2 66529  43.0006  45.3224 0001067 257.3844 344.6364 15.40665622  5237
STARLINK-35961          
1 66530U 25265Q   25348.25003472  .00033153  00000+0  79810-3 0  9997
2 66530  43.0003  45.2618 0001097 286.7461 340.1179 15.40676083  5234
STARLINK-35960          
1 66531U 25265R   25348.25003472 -.00299050  00000+0 -73950-2 0  9998
2 66531  43.0002  45.2014 0001193 302.2687 349.4335 15.40865011  5232
STARLINK-35914          
1 66532U 25265S   25348.25003472 -.02046033  00000+0 -48992-1 0  9999
2 66532  43.0002  45.1534 0000875 274.4640  37.3284 15.44198439  5237
STARLINK-35707          
1 66533U 25265T   25347.86892077  .00074308  00000+0  12610-2 0  9994
2 66533  42.9992  47.3369 0002450 286.6299  73.4292 15.50564385  3939
STARLINK-35976          
1 66534U 25265U   25347.86859606  .00084499  00000+0  14328-2 0  9996
2 66534  43.0007  47.3346 0001408 261.6774  98.3926 15.50536189  3938
STARLINK-35514          
1 66535U 25265V   25348.19030855  .00121606  00000+0  20450-2 0  9996
2 66535  42.9995  45.4472 0001638 259.4336 100.6340 15.50600982  3981
STARLINK-35640          
1 66536U 25265W   25348.18996596  .00090399  00000+0  15283-2 0  9991
2 66536  42.9992  45.4445 0001439 254.1377 105.9325 15.50590877  3987
STARLINK-35582          
1 66537U 25265X   25348.18962513  .00114584  00000+0  19302-2 0  9993
2 66537  42.9999  45.4424 0001471 276.1313  83.9379 15.50583357  3981
STARLINK-35577          
1 66538U 25265Y   25348.18927840  .00084339  00000+0  14262-2 0  9992
2 66538  43.0010  45.4393 0001646 266.4101  93.6571 15.50614128  3987
