CCSDS_OMM_VERS = 2.0
CREATION_DATE  = 
ORIGINATOR     = 

OBJECT_NAME    = STARLINK-35935
OBJECT_ID      = 2025-265M
CENTER_NAME    = EARTH
REF_FRAME      = TEME
TIME_SYSTEM    = UTC
MEAN_ELEMENT_THEORY = SGP/SGP4

EPOCH          = 2025-12-13T11:37:41.143872
MEAN_MOTION    = 15.50556406
ECCENTRICITY   = .00046793
INCLINATION    = 43.0007
RA_OF_ASC_NODE = 49.6123
ARG_OF_PERICENTER = 286.0879
MEAN_ANOMALY   = 73.9466

EPHEMERIS_TYPE = 0
CLASSIFICATION_TYPE = U
NORAD_CAT_ID   = 66527
ELEMENT_SET_NO = 999
REV_AT_EPOCH   = 387
BSTAR          = .23034303E-2
MEAN_MOTION_DOT = .137109E-2
MEAN_MOTION_DDOT = 0

CCSDS_OMM_VERS = 2.0
CREATION_DATE  = 
ORIGINATOR     = 

OBJECT_NAME    = STARLINK-35928
OBJECT_ID      = 2025-265N
CENTER_NAME    = EARTH
REF_FRAME      = TEME
TIME_SYSTEM    = UTC
MEAN_ELEMENT_THEORY = SGP/SGP4

EPOCH          = 2025-12-14T04:37:31.787328
MEAN_MOTION    = 15.50575093
ECCENTRICITY   = .00013745
INCLINATION    = 42.9993
RA_OF_ASC_NODE = 45.4676
ARG_OF_PERICENTER = 257.7908
MEAN_ANOMALY   = 102.2798

EPHEMERIS_TYPE = 0
CLASSIFICATION_TYPE = U
NORAD_CAT_ID   = 66528
ELEMENT_SET_NO = 999
REV_AT_EPOCH   = 398
BSTAR          = .12830245E-2
MEAN_MOTION_DOT = .75647E-3
MEAN_MOTION_DDOT = 0

CCSDS_OMM_VERS = 2.0
CREATION_DATE  = 
ORIGINATOR     = 

OBJECT_NAME    = STARLINK-35933
OBJECT_ID      = 2025-265P
CENTER_NAME    = EARTH
REF_FRAME      = TEME
TIME_SYSTEM    = UTC
MEAN_ELEMENT_THEORY = SGP/SGP4

EPOCH          = 2025-12-14T06:00:02.999808
MEAN_MOTION    = 15.40665622
ECCENTRICITY   = .00010673
INCLINATION    = 43.0006
RA_OF_ASC_NODE = 45.3224
ARG_OF_PERICENTER = 257.3844
MEAN_ANOMALY   = 344.6364

EPHEMERIS_TYPE = 0
CLASSIFICATION_TYPE = U
NORAD_CAT_ID   = 66529
ELEMENT_SET_NO = 999
REV_AT_EPOCH   = 523
BSTAR          = .76971657E-3
MEAN_MOTION_DOT = .31947E-3
MEAN_MOTION_DDOT = 0

CCSDS_OMM_VERS = 2.0
CREATION_DATE  = 
ORIGINATOR     = 

OBJECT_NAME    = STARLINK-35961
OBJECT_ID      = 2025-265Q
CENTER_NAME    = EARTH
REF_FRAME      = TEME
TIME_SYSTEM    = UTC
MEAN_ELEMENT_THEORY = SGP/SGP4

EPOCH          = 2025-12-14T06:00:02.999808
MEAN_MOTION    = 15.40676083
ECCENTRICITY   = .00010973
INCLINATION    = 43.0003
RA_OF_ASC_NODE = 45.2618
ARG_OF_PERICENTER = 286.7461
MEAN_ANOMALY   = 340.1179

EPHEMERIS_TYPE = 0
CLASSIFICATION_TYPE = U
NORAD_CAT_ID   = 66530
ELEMENT_SET_NO = 999
REV_AT_EPOCH   = 523
BSTAR          = .79810288E-3
MEAN_MOTION_DOT = .33153E-3
MEAN_MOTION_DDOT = 0

CCSDS_OMM_VERS = 2.0
CREATION_DATE  = 
ORIGINATOR     = 

OBJECT_NAME    = STARLINK-35960
OBJECT_ID      = 2025-265R
CENTER_NAME    = EARTH
REF_FRAME      = TEME
TIME_SYSTEM    = UTC
MEAN_ELEMENT_THEORY = SGP/SGP4

EPOCH          = 2025-12-14T06:00:02.999808
MEAN_MOTION    = 15.40865011
ECCENTRICITY   = .00011937
INCLINATION    = 43.0002
RA_OF_ASC_NODE = 45.2014
ARG_OF_PERICENTER = 302.2687
MEAN_ANOMALY   = 349.4335

EPHEMERIS_TYPE = 0
CLASSIFICATION_TYPE = U
NORAD_CAT_ID   = 66531
ELEMENT_SET_NO = 999
REV_AT_EPOCH   = 523
BSTAR          = -.73950457E-2
MEAN_MOTION_DOT = -.29905E-2
MEAN_MOTION_DDOT = 0

CCSDS_OMM_VERS = 2.0
CREATION_DATE  = 
ORIGINATOR     = 

OBJECT_NAME    = STARLINK-35914
OBJECT_ID      = 2025-265S
CENTER_NAME    = EARTH
REF_FRAME      = TEME
TIME_SYSTEM    = UTC
MEAN_ELEMENT_THEORY = SGP/SGP4

EPOCH          = 2025-12-14T06:00:02.999808
MEAN_MOTION    = 15.44198439
ECCENTRICITY   = .00008757
INCLINATION    = 43.0002
RA_OF_ASC_NODE = 45.1534
ARG_OF_PERICENTER = 274.4640
MEAN_ANOMALY   = 37.3284

EPHEMERIS_TYPE = 0
CLASSIFICATION_TYPE = U
NORAD_CAT_ID   = 66532
ELEMENT_SET_NO = 999
REV_AT_EPOCH   = 523
BSTAR          = -.48991914E-1
MEAN_MOTION_DOT = -.2046033E-1
MEAN_MOTION_DDOT = 0

CCSDS_OMM_VERS = 2.0
CREATION_DATE  = 
ORIGINATOR     = 

OBJECT_NAME    = STARLINK-35707
OBJECT_ID      = 2025-265T
CENTER_NAME    = EARTH
REF_FRAME      = TEME
TIME_SYSTEM    = UTC
MEAN_ELEMENT_THEORY = SGP/SGP4

EPOCH          = 2025-12-13T20:51:14.754528
MEAN_MOTION    = 15.50564385
ECCENTRICITY   = .00024505
INCLINATION    = 42.9992
RA_OF_ASC_NODE = 47.3369
ARG_OF_PERICENTER = 286.6299
MEAN_ANOMALY   = 73.4292

EPHEMERIS_TYPE = 0
CLASSIFICATION_TYPE = U
NORAD_CAT_ID   = 66533
ELEMENT_SET_NO = 999
REV_AT_EPOCH   = 393
BSTAR          = .12610474E-2
MEAN_MOTION_DOT = .74308E-3
MEAN_MOTION_DDOT = 0

CCSDS_OMM_VERS = 2.0
CREATION_DATE  = 
ORIGINATOR     = 

OBJECT_NAME    = STARLINK-35976
OBJECT_ID      = 2025-265U
CENTER_NAME    = EARTH
REF_FRAME      = TEME
TIME_SYSTEM    = UTC
MEAN_ELEMENT_THEORY = SGP/SGP4

EPOCH          = 2025-12-13T20:50:46.699584
MEAN_MOTION    = 15.50536189
ECCENTRICITY   = .00014087
INCLINATION    = 43.0007
RA_OF_ASC_NODE = 47.3346
ARG_OF_PERICENTER = 261.6774
MEAN_ANOMALY   = 98.3926

EPHEMERIS_TYPE = 0
CLASSIFICATION_TYPE = U
NORAD_CAT_ID   = 66534
ELEMENT_SET_NO = 999
REV_AT_EPOCH   = 393
BSTAR          = .14328371E-2
MEAN_MOTION_DOT = .84499E-3
MEAN_MOTION_DDOT = 0

CCSDS_OMM_VERS = 2.0
CREATION_DATE  = 
ORIGINATOR     = 

OBJECT_NAME    = STARLINK-35514
OBJECT_ID      = 2025-265V
CENTER_NAME    = EARTH
REF_FRAME      = TEME
TIME_SYSTEM    = UTC
MEAN_ELEMENT_THEORY = SGP/SGP4

EPOCH          = 2025-12-14T04:34:02.658720
MEAN_MOTION    = 15.50600982
ECCENTRICITY   = .00016388
INCLINATION    = 42.9995
RA_OF_ASC_NODE = 45.4472
ARG_OF_PERICENTER = 259.4336
MEAN_ANOMALY   = 100.6340

EPHEMERIS_TYPE = 0
CLASSIFICATION_TYPE = U
NORAD_CAT_ID   = 66535
ELEMENT_SET_NO = 999
REV_AT_EPOCH   = 398
BSTAR          = .20450132E-2
MEAN_MOTION_DOT = .121606E-2
MEAN_MOTION_DDOT = 0

CCSDS_OMM_VERS = 2.0
CREATION_DATE  = 
ORIGINATOR     = 

OBJECT_NAME    = STARLINK-35640
OBJECT_ID      = 2025-265W
CENTER_NAME    = EARTH
REF_FRAME      = TEME
TIME_SYSTEM    = UTC
MEAN_ELEMENT_THEORY = SGP/SGP4

EPOCH          = 2025-12-14T04:33:33.058944
MEAN_MOTION    = 15.50590877
ECCENTRICITY   = .00014399
INCLINATION    = 42.9992
RA_OF_ASC_NODE = 45.4445
ARG_OF_PERICENTER = 254.1377
MEAN_ANOMALY   = 105.9325

EPHEMERIS_TYPE = 0
CLASSIFICATION_TYPE = U
NORAD_CAT_ID   = 66536
ELEMENT_SET_NO = 999
REV_AT_EPOCH   = 398
BSTAR          = .15283382E-2
MEAN_MOTION_DOT = .90399E-3
MEAN_MOTION_DDOT = 0

CCSDS_OMM_VERS = 2.0
CREATION_DATE  = 
ORIGINATOR     = 

OBJECT_NAME    = STARLINK-35582
OBJECT_ID      = 2025-265X
CENTER_NAME    = EARTH
REF_FRAME      = TEME
TIME_SYSTEM    = UTC
MEAN_ELEMENT_THEORY = SGP/SGP4

EPOCH          = 2025-12-14T04:33:03.611232
MEAN_MOTION    = 15.50583357
ECCENTRICITY   = .0001471
INCLINATION    = 42.9999
RA_OF_ASC_NODE = 45.4424
ARG_OF_PERICENTER = 276.1313
MEAN_ANOMALY   = 83.9379

EPHEMERIS_TYPE = 0
CLASSIFICATION_TYPE = U
NORAD_CAT_ID   = 66537
ELEMENT_SET_NO = 999
REV_AT_EPOCH   = 398
BSTAR          = .19302166E-2
MEAN_MOTION_DOT = .114584E-2
MEAN_MOTION_DDOT = 0

CCSDS_OMM_VERS = 2.0
CREATION_DATE  = 
ORIGINATOR     = 

OBJECT_NAME    = STARLINK-35577
OBJECT_ID      = 2025-265Y
CENTER_NAME    = EARTH
REF_FRAME      = TEME
TIME_SYSTEM    = UTC
MEAN_ELEMENT_THEORY = SGP/SGP4

EPOCH          = 2025-12-14T04:32:33.653760
MEAN_MOTION    = 15.50614128
ECCENTRICITY   = .0001646
INCLINATION    = 43.0010
RA_OF_ASC_NODE = 45.4393
ARG_OF_PERICENTER = 266.4101
MEAN_ANOMALY   = 93.6571

EPHEMERIS_TYPE = 0
CLASSIFICATION_TYPE = U
NORAD_CAT_ID   = 66538
ELEMENT_SET_NO = 999
REV_AT_EPOCH   = 398
BSTAR          = .1426202E-2
MEAN_MOTION_DOT = .84339E-3
MEAN_MOTION_DDOT = 0

